H-2A R/B                
1 28932U 06002B   26074.94354118  .00009443  00000+0  47116-3 0  9997
2 28932  98.2415 222.5062 0051988 219.5560 140.1873 15.16568053 95382
RESURS-DK 1             
1 29228U 06021A   26074.81714191  .00003211  00000+0  18856-3 0  9990
2 29228  69.9326 221.1714 0001242 153.5700 206.5530 15.12791909 88458
CZ-4B R/B               
1 29507U 06046C   26074.61195722  .00004642  00000+0  23568-3 0  9993
2 29507  97.5587 119.5051 0031806 245.8404 113.9503 15.16968770 60944
CZ-2C R/B               
1 31114U 07010B   26074.92550956  .00000118  00000+0  73428-4 0  9995
2 31114  98.3983 187.8918 0057840 276.1470  83.3120 14.20248566980603
COSMO-SKYMED 1          
1 31598U 07023A   26074.94941561  .00003820  00000+0  34068-3 0  9992
2 31598  97.8883 266.0322 0001619  92.9979 267.1428 14.96592090 15847
COSMOS 2428             
1 31792U 07029A   26074.76468212 -.00000011  00000+0  19840-4 0  9993
2 31792  70.9439 190.5927 0009360 270.9402  89.0646 14.12947145964955
SL-16 R/B               
1 31793U 07029B   26074.66384344  .00000274  00000+0  16675-3 0  9998
2 31793  70.9757 159.8277 0002271 276.2076 246.2511 14.14835963966210
KORONAS-FOTON           
1 33504U 09003A   26074.92357211  .00012158  00000+0  27002-3 0  9996
2 33504  82.4270 269.3956 0011680 129.1340 231.0948 15.43475610946705
CZ-2C R/B               
1 37731U 11030B   26074.89474624  .00001543  00000+0  20048-3 0  9998
2 37731  97.8553  32.0339 0051895 331.7413  91.7930 14.81246596791013
H-2A R/B                
1 38341U 12025E   26074.88535136  .00002527  00000+0  23198-3 0  9998
2 38341  98.4733  42.4278 0043277 293.4714  66.1959 14.95216481749147
SHIJIAN-16 (SJ-16)      
1 39358U 13057A   26074.93062688  .00002766  00000+0  27245-3 0  9998
2 39358  74.9734 173.2744 0015400  96.4664 263.8278 14.92378389672439
SL-4 R/B                
1 39679U 14021B   26074.92637133  .00014573  00000+0  32013-3 0  9996
2 39679  51.6065 306.8490 0096959 125.7536 235.2512 15.39397720657235
