CCSDS_OMM_VERS = 2.0
CREATION_DATE  = 
ORIGINATOR     = 

OBJECT_NAME    = H-2A R/B
OBJECT_ID      = 2006-002B
CENTER_NAME    = EARTH
REF_FRAME      = TEME
TIME_SYSTEM    = UTC
MEAN_ELEMENT_THEORY = SGP/SGP4

EPOCH          = 2026-03-15T22:38:41.957952
MEAN_MOTION    = 15.16568053
ECCENTRICITY   = .00519889
INCLINATION    = 98.2415
RA_OF_ASC_NODE = 222.5062
ARG_OF_PERICENTER = 219.5560
MEAN_ANOMALY   = 140.1873

EPHEMERIS_TYPE = 0
CLASSIFICATION_TYPE = U
NORAD_CAT_ID   = 28932
ELEMENT_SET_NO = 999
REV_AT_EPOCH   = 9538
BSTAR          = .47116468E-3
MEAN_MOTION_DOT = .9443E-4
MEAN_MOTION_DDOT = 0

CCSDS_OMM_VERS = 2.0
CREATION_DATE  = 
ORIGINATOR     = 

OBJECT_NAME    = RESURS-DK 1
OBJECT_ID      = 2006-021A
CENTER_NAME    = EARTH
REF_FRAME      = TEME
TIME_SYSTEM    = UTC
MEAN_ELEMENT_THEORY = SGP/SGP4

EPOCH          = 2026-03-15T19:36:41.061024
MEAN_MOTION    = 15.12791909
ECCENTRICITY   = .00012423
INCLINATION    = 69.9326
RA_OF_ASC_NODE = 221.1714
ARG_OF_PERICENTER = 153.5700
MEAN_ANOMALY   = 206.5530

EPHEMERIS_TYPE = 0
CLASSIFICATION_TYPE = U
NORAD_CAT_ID   = 29228
ELEMENT_SET_NO = 999
REV_AT_EPOCH   = 8845
BSTAR          = .18856032E-3
MEAN_MOTION_DOT = .3211E-4
MEAN_MOTION_DDOT = 0

CCSDS_OMM_VERS = 2.0
CREATION_DATE  = 
ORIGINATOR     = 

OBJECT_NAME    = CZ-4B R/B
OBJECT_ID      = 2006-046C
CENTER_NAME    = EARTH
REF_FRAME      = TEME
TIME_SYSTEM    = UTC
MEAN_ELEMENT_THEORY = SGP/SGP4

EPOCH          = 2026-03-15T14:41:13.103808
MEAN_MOTION    = 15.16968770
ECCENTRICITY   = .00318066
INCLINATION    = 97.5587
RA_OF_ASC_NODE = 119.5051
ARG_OF_PERICENTER = 245.8404
MEAN_ANOMALY   = 113.9503

EPHEMERIS_TYPE = 0
CLASSIFICATION_TYPE = U
NORAD_CAT_ID   = 29507
ELEMENT_SET_NO = 999
REV_AT_EPOCH   = 6094
BSTAR          = .23568426E-3
MEAN_MOTION_DOT = .4642E-4
MEAN_MOTION_DDOT = 0

CCSDS_OMM_VERS = 2.0
CREATION_DATE  = 
ORIGINATOR     = 

OBJECT_NAME    = CZ-2C R/B
OBJECT_ID      = 2007-010B
CENTER_NAME    = EARTH
REF_FRAME      = TEME
TIME_SYSTEM    = UTC
MEAN_ELEMENT_THEORY = SGP/SGP4

EPOCH          = 2026-03-15T22:12:44.025984
MEAN_MOTION    = 14.20248566
ECCENTRICITY   = .00578401
INCLINATION    = 98.3983
RA_OF_ASC_NODE = 187.8918
ARG_OF_PERICENTER = 276.1470
MEAN_ANOMALY   = 83.3120

EPHEMERIS_TYPE = 0
CLASSIFICATION_TYPE = U
NORAD_CAT_ID   = 31114
ELEMENT_SET_NO = 999
REV_AT_EPOCH   = 98060
BSTAR          = .73428159E-4
MEAN_MOTION_DOT = .118E-5
MEAN_MOTION_DDOT = 0

CCSDS_OMM_VERS = 2.0
CREATION_DATE  = 
ORIGINATOR     = 

OBJECT_NAME    = COSMO-SKYMED 1
OBJECT_ID      = 2007-023A
CENTER_NAME    = EARTH
REF_FRAME      = TEME
TIME_SYSTEM    = UTC
MEAN_ELEMENT_THEORY = SGP/SGP4

EPOCH          = 2026-03-15T22:47:09.508704
MEAN_MOTION    = 14.96592090
ECCENTRICITY   = .00016194
INCLINATION    = 97.8883
RA_OF_ASC_NODE = 266.0322
ARG_OF_PERICENTER = 92.9979
MEAN_ANOMALY   = 267.1428

EPHEMERIS_TYPE = 0
CLASSIFICATION_TYPE = U
NORAD_CAT_ID   = 31598
ELEMENT_SET_NO = 999
REV_AT_EPOCH   = 1584
BSTAR          = .34067532E-3
MEAN_MOTION_DOT = .382E-4
MEAN_MOTION_DDOT = 0

CCSDS_OMM_VERS = 2.0
CREATION_DATE  = 
ORIGINATOR     = 

OBJECT_NAME    = COSMOS 2428
OBJECT_ID      = 2007-029A
CENTER_NAME    = EARTH
REF_FRAME      = TEME
TIME_SYSTEM    = UTC
MEAN_ELEMENT_THEORY = SGP/SGP4

EPOCH          = 2026-03-15T18:21:08.535168
MEAN_MOTION    = 14.12947145
ECCENTRICITY   = .00093605
INCLINATION    = 70.9439
RA_OF_ASC_NODE = 190.5927
ARG_OF_PERICENTER = 270.9402
MEAN_ANOMALY   = 89.0646

EPHEMERIS_TYPE = 0
CLASSIFICATION_TYPE = U
NORAD_CAT_ID   = 31792
ELEMENT_SET_NO = 999
REV_AT_EPOCH   = 96495
BSTAR          = .19839742E-4
MEAN_MOTION_DOT = -.11E-6
MEAN_MOTION_DDOT = 0

CCSDS_OMM_VERS = 2.0
CREATION_DATE  = 
ORIGINATOR     = 

OBJECT_NAME    = SL-16 R/B
OBJECT_ID      = 2007-029B
CENTER_NAME    = EARTH
REF_FRAME      = TEME
TIME_SYSTEM    = UTC
MEAN_ELEMENT_THEORY = SGP/SGP4

EPOCH          = 2026-03-15T15:55:56.073216
MEAN_MOTION    = 14.14835963
ECCENTRICITY   = .00022711
INCLINATION    = 70.9757
RA_OF_ASC_NODE = 159.8277
ARG_OF_PERICENTER = 276.2076
MEAN_ANOMALY   = 246.2511

EPHEMERIS_TYPE = 0
CLASSIFICATION_TYPE = U
NORAD_CAT_ID   = 31793
ELEMENT_SET_NO = 999
REV_AT_EPOCH   = 96621
BSTAR          = .16674816E-3
MEAN_MOTION_DOT = .274E-5
MEAN_MOTION_DDOT = 0

CCSDS_OMM_VERS = 2.0
CREATION_DATE  = 
ORIGINATOR     = 

OBJECT_NAME    = KORONAS-FOTON
OBJECT_ID      = 2009-003A
CENTER_NAME    = EARTH
REF_FRAME      = TEME
TIME_SYSTEM    = UTC
MEAN_ELEMENT_THEORY = SGP/SGP4

EPOCH          = 2026-03-15T22:09:56.630304
MEAN_MOTION    = 15.43475610
ECCENTRICITY   = .00116801
INCLINATION    = 82.4270
RA_OF_ASC_NODE = 269.3956
ARG_OF_PERICENTER = 129.1340
MEAN_ANOMALY   = 231.0948

EPHEMERIS_TYPE = 0
CLASSIFICATION_TYPE = U
NORAD_CAT_ID   = 33504
ELEMENT_SET_NO = 999
REV_AT_EPOCH   = 94670
BSTAR          = .27001771E-3
MEAN_MOTION_DOT = .12158E-3
MEAN_MOTION_DDOT = 0

CCSDS_OMM_VERS = 2.0
CREATION_DATE  = 
ORIGINATOR     = 

OBJECT_NAME    = CZ-2C R/B
OBJECT_ID      = 2011-030B
CENTER_NAME    = EARTH
REF_FRAME      = TEME
TIME_SYSTEM    = UTC
MEAN_ELEMENT_THEORY = SGP/SGP4

EPOCH          = 2026-03-15T21:28:26.075136
MEAN_MOTION    = 14.81246596
ECCENTRICITY   = .00518956
INCLINATION    = 97.8553
RA_OF_ASC_NODE = 32.0339
ARG_OF_PERICENTER = 331.7413
MEAN_ANOMALY   = 91.7930

EPHEMERIS_TYPE = 0
CLASSIFICATION_TYPE = U
NORAD_CAT_ID   = 37731
ELEMENT_SET_NO = 999
REV_AT_EPOCH   = 79101
BSTAR          = .20047768E-3
MEAN_MOTION_DOT = .1543E-4
MEAN_MOTION_DDOT = 0

CCSDS_OMM_VERS = 2.0
CREATION_DATE  = 
ORIGINATOR     = 

OBJECT_NAME    = H-2A R/B
OBJECT_ID      = 2012-025E
CENTER_NAME    = EARTH
REF_FRAME      = TEME
TIME_SYSTEM    = UTC
MEAN_ELEMENT_THEORY = SGP/SGP4

EPOCH          = 2026-03-15T21:14:54.357504
MEAN_MOTION    = 14.95216481
ECCENTRICITY   = .0043277
INCLINATION    = 98.4733
RA_OF_ASC_NODE = 42.4278
ARG_OF_PERICENTER = 293.4714
MEAN_ANOMALY   = 66.1959

EPHEMERIS_TYPE = 0
CLASSIFICATION_TYPE = U
NORAD_CAT_ID   = 38341
ELEMENT_SET_NO = 999
REV_AT_EPOCH   = 74914
BSTAR          = .23197809E-3
MEAN_MOTION_DOT = .2527E-4
MEAN_MOTION_DDOT = 0

CCSDS_OMM_VERS = 2.0
CREATION_DATE  = 
ORIGINATOR     = 

OBJECT_NAME    = SHIJIAN-16 (SJ-16)
OBJECT_ID      = 2013-057A
CENTER_NAME    = EARTH
REF_FRAME      = TEME
TIME_SYSTEM    = UTC
MEAN_ELEMENT_THEORY = SGP/SGP4

EPOCH          = 2026-03-15T22:20:06.162432
MEAN_MOTION    = 14.92378389
ECCENTRICITY   = .00154007
INCLINATION    = 74.9734
RA_OF_ASC_NODE = 173.2744
ARG_OF_PERICENTER = 96.4664
MEAN_ANOMALY   = 263.8278

EPHEMERIS_TYPE = 0
CLASSIFICATION_TYPE = U
NORAD_CAT_ID   = 39358
ELEMENT_SET_NO = 999
REV_AT_EPOCH   = 67243
BSTAR          = .27244559E-3
MEAN_MOTION_DOT = .2766E-4
MEAN_MOTION_DDOT = 0

CCSDS_OMM_VERS = 2.0
CREATION_DATE  = 
ORIGINATOR     = 

OBJECT_NAME    = SL-4 R/B
OBJECT_ID      = 2014-021B
CENTER_NAME    = EARTH
REF_FRAME      = TEME
TIME_SYSTEM    = UTC
MEAN_ELEMENT_THEORY = SGP/SGP4

EPOCH          = 2026-03-15T22:13:58.482912
MEAN_MOTION    = 15.39397720
ECCENTRICITY   = .00969595
INCLINATION    = 51.6065
RA_OF_ASC_NODE = 306.8490
ARG_OF_PERICENTER = 125.7536
MEAN_ANOMALY   = 235.2512

EPHEMERIS_TYPE = 0
CLASSIFICATION_TYPE = U
NORAD_CAT_ID   = 39679
ELEMENT_SET_NO = 999
REV_AT_EPOCH   = 65723
BSTAR          = .32012714E-3
MEAN_MOTION_DOT = .14573E-3
MEAN_MOTION_DDOT = 0

